COSMOS 2242             
1 22626U 93024A   26093.90891592  .00004049  00000+0  35195-3 0  9991
2 22626  82.5174 242.5872 0015497 216.6596 143.3568 14.96671287784165
SL-16 R/B               
1 22803U 93059B   26093.95669856  .00000086  00000+0  66081-4 0  9993
2 22803  70.9906 317.8462 0017084 179.1684 180.9472 14.17234867683118
ARIANE 40 R/B           
1 22830U 93061H   26093.76762537  .00000356  00000+0  14629-3 0  9995
2 22830  98.4871 162.1547 0010326 203.9260 156.1446 14.32875370697698
COSMOS 2278             
1 23087U 94023A   26093.49244014 -.00000001  00000+0  24198-4 0  9995
2 23087  71.0506 123.2078 0009319 336.5265  23.5431 14.14374884648310
SL-16 R/B               
1 23088U 94023B   26093.95189062  .00000197  00000+0  12638-3 0  9998
2 23088  71.0031  17.8332 0005579 263.6133  96.4355 14.15019511649660
SL-16 R/B               
1 23343U 94074B   26093.95414337  .00000814  00000+0  11561-3 0  9994
2 23343  97.7070 123.7446 0007678 131.0191 292.2297 14.79439114690986
SL-16 R/B               
1 23405U 94077B   26093.92363411 -.00000190  00000+0 -72840-4 0  9996
2 23405  70.9821 299.4029 0001608 190.2526 169.8564 14.15568210619804
ARIANE 40+ R/B          
1 23561U 95021B   26093.70631675  .00000499  00000+0  17287-3 0  9998
2 23561  98.4454 164.8446 0007853  72.1356  41.9891 14.39791754622847
SL-16 R/B               
1 23705U 95058B   26093.50785486 -.00000068  00000+0 -10658-4 0  9996
2 23705  71.0192 128.1524 0010269  80.2061 280.0221 14.15497860571369
SL-16 R/B               
1 24298U 96051B   26093.52843798  .00000145  00000+0  10536-3 0  9999
2 24298  70.7581 122.6662 0013136 107.2994 252.9564 14.12423229525157
ORBVIEW 2 (SEASTAR)     
1 24883U 97037A   26093.92868103  .00000465  00000+0  17797-3 0  9996
2 24883  98.8610 258.9151 0002091  15.0285 345.0962 14.35514090512091
SL-16 R/B               
1 25400U 98043G   26093.85002027  .00000117  00000+0  68031-4 0  9999
2 25400  98.8297  47.3985 0008971 305.6096  54.4247 14.26056012442571
